{
  "norad_id": 52585,
  "name": "STARLINK-3906",
  "history": [
    {
      "epoch": "2026-03-28T20:51:30.186432Z",
      "apogee_km": 540.7863097799445,
      "perigee_km": 538.6727631957174,
      "latitude_deg": -1.0836518508602383e-05,
      "longitude_deg": -106.17794420869143,
      "height_km": 540.6594530020532,
      "semi_major_axis_km": 6917.866536487831,
      "eccentricity": 0.00015276,
      "inclination_deg": 53.22,
      "raan_deg": 32.9812,
      "arg_perigee_deg": 91.8526,
      "mean_anomaly_deg": 268.2641,
      "mean_motion_rev_day": 15.08844532
    },
    {
      "epoch": "2026-03-29T03:13:02.299296Z",
      "apogee_km": 540.7852750663906,
      "perigee_km": 538.6379748532026,
      "latitude_deg": -7.963467687213483e-05,
      "longitude_deg": 156.9869494833539,
      "height_km": 540.6221690923337,
      "semi_major_axis_km": 6917.848624959796,
      "eccentricity": 0.0001552,
      "inclination_deg": 53.2189,
      "raan_deg": 31.7911,
      "arg_perigee_deg": 90.7968,
      "mean_anomaly_deg": 269.3201,
      "mean_motion_rev_day": 15.08850392
    },
    {
      "epoch": "2026-03-30T04:39:13.836960Z",
      "apogee_km": 540.8189437997144,
      "perigee_km": 538.7076006366333,
      "latitude_deg": 6.594970749856784e-06,
      "longitude_deg": 129.63889915156003,
      "height_km": 540.6980728826577,
      "semi_major_axis_km": 6917.900272218173,
      "eccentricity": 0.0001526,
      "inclination_deg": 53.2199,
      "raan_deg": 27.0357,
      "arg_perigee_deg": 92.1206,
      "mean_anomaly_deg": 267.9961,
      "mean_motion_rev_day": 15.08833495
    },
    {
      "epoch": "2026-03-30T04:39:13.837824Z",
      "apogee_km": 540.8192205157247,
      "perigee_km": 538.707323920622,
      "latitude_deg": 2.9036429144824777e-06,
      "longitude_deg": 129.63889279737174,
      "height_km": 540.6980831218452,
      "semi_major_axis_km": 6917.900272218173,
      "eccentricity": 0.00015264,
      "inclination_deg": 53.2199,
      "raan_deg": 27.0357,
      "arg_perigee_deg": 92.1206,
      "mean_anomaly_deg": 267.9961,
      "mean_motion_rev_day": 15.08833495
    },
    {
      "epoch": "2026-03-31T12:26:56.374656Z",
      "apogee_km": 540.8004423431212,
      "perigee_km": 538.6976816957085,
      "latitude_deg": -3.930037096349233e-05,
      "longitude_deg": 5.457745903944077,
      "height_km": 540.5445248213579,
      "semi_major_axis_km": 6917.886062019415,
      "eccentricity": 0.00015198,
      "inclination_deg": 53.2189,
      "raan_deg": 21.0876,
      "arg_perigee_deg": 84.5314,
      "mean_anomaly_deg": 275.5851,
      "mean_motion_rev_day": 15.08838144
    },
    {
      "epoch": "2026-04-01T12:17:43.888128Z",
      "apogee_km": 540.8803338106709,
      "perigee_km": 538.61541830225,
      "latitude_deg": 2.343130321398673e-05,
      "longitude_deg": 2.3211788000741884,
      "height_km": 540.478511086328,
      "semi_major_axis_km": 6917.88487605646,
      "eccentricity": 0.0001637,
      "inclination_deg": 53.2203,
      "raan_deg": 16.6283,
      "arg_perigee_deg": 81.6214,
      "mean_anomaly_deg": 278.4964,
      "mean_motion_rev_day": 15.08838532
    },
    {
      "epoch": "2026-04-02T18:30:02.952000Z",
      "apogee_km": 540.8262552274664,
      "perigee_km": 538.6166912311164,
      "latitude_deg": -4.135458348014937e-06,
      "longitude_deg": -97.6477607630089,
      "height_km": 540.4160598836705,
      "semi_major_axis_km": 6917.858473229291,
      "eccentricity": 0.0001597,
      "inclination_deg": 53.219,
      "raan_deg": 10.9793,
      "arg_perigee_deg": 79.5173,
      "mean_anomaly_deg": 280.5999,
      "mean_motion_rev_day": 15.0884717
    },
    {
      "epoch": "2026-04-02T21:40:49.096992Z",
      "apogee_km": 540.7918390882123,
      "perigee_km": 538.6304266175839,
      "latitude_deg": -2.69966369359012e-05,
      "longitude_deg": -146.06532526520482,
      "height_km": 540.4169444447406,
      "semi_major_axis_km": 6917.848132852898,
      "eccentricity": 0.00015622,
      "inclination_deg": 53.2186,
      "raan_deg": 10.3846,
      "arg_perigee_deg": 79.8857,
      "mean_anomaly_deg": 280.2311,
      "mean_motion_rev_day": 15.08850553
    },
    {
      "epoch": "2026-04-03T11:59:17.697696Z",
      "apogee_km": 540.9947984517912,
      "perigee_km": 538.5155642518375,
      "latitude_deg": -2.6675376397043102e-05,
      "longitude_deg": -3.947501003204218,
      "height_km": 540.2494848720531,
      "semi_major_axis_km": 6917.892181351814,
      "eccentricity": 0.00017919,
      "inclination_deg": 53.2184,
      "raan_deg": 7.7092,
      "arg_perigee_deg": 71.1238,
      "mean_anomaly_deg": 288.9948,
      "mean_motion_rev_day": 15.08836142
    },
    {
      "epoch": "2026-04-04T03:53:09.555360Z",
      "apogee_km": 540.8225462854698,
      "perigee_km": 538.718810560461,
      "latitude_deg": -7.950689347591926e-06,
      "longitude_deg": 113.95644221710718,
      "height_km": 540.8709656531355,
      "semi_major_axis_km": 6917.907678422965,
      "eccentricity": 0.00015205,
      "inclination_deg": 53.2183,
      "raan_deg": 4.7321,
      "arg_perigee_deg": 101.2203,
      "mean_anomaly_deg": 258.896,
      "mean_motion_rev_day": 15.08831072
    },
    {
      "epoch": "2026-04-05T10:05:29.040864Z",
      "apogee_km": 540.6680023604576,
      "perigee_km": 538.7503753968995,
      "latitude_deg": -6.182904850064649e-06,
      "longitude_deg": 13.986360163495807,
      "height_km": 540.3271494065787,
      "semi_major_axis_km": 6917.846188878678,
      "eccentricity": 0.0001386,
      "inclination_deg": 53.2175,
      "raan_deg": 359.0837,
      "arg_perigee_deg": 73.1572,
      "mean_anomaly_deg": 286.9572,
      "mean_motion_rev_day": 15.08851189
    },
    {
      "epoch": "2026-04-06T00:23:56.973696Z",
      "apogee_km": 540.6619887023517,
      "perigee_km": 538.7573671549835,
      "latitude_deg": 4.767758507441107e-05,
      "longitude_deg": 156.1058135419787,
      "height_km": 540.2988298187921,
      "semi_major_axis_km": 6917.846677928667,
      "eccentricity": 0.00013766,
      "inclination_deg": 53.2182,
      "raan_deg": 356.4071,
      "arg_perigee_deg": 71.2112,
      "mean_anomaly_deg": 288.903,
      "mean_motion_rev_day": 15.08851029
    },
    {
      "epoch": "2026-04-07T09:47:03.184800Z",
      "apogee_km": 540.8600129194429,
      "perigee_km": 538.6301028169091,
      "latitude_deg": -1.2618644538921462e-05,
      "longitude_deg": 7.7155098375537134,
      "height_km": 540.3927394772431,
      "semi_major_axis_km": 6917.882057868176,
      "eccentricity": 0.00016117,
      "inclination_deg": 53.2196,
      "raan_deg": 350.1638,
      "arg_perigee_deg": 77.1498,
      "mean_anomaly_deg": 282.9674,
      "mean_motion_rev_day": 15.08839454
    },
    {
      "epoch": "2026-04-07T20:54:44.964000Z",
      "apogee_km": 540.8063510052862,
      "perigee_km": 538.6438273162139,
      "latitude_deg": -8.08392046291279e-06,
      "longitude_deg": -161.74599004182846,
      "height_km": 540.454254474455,
      "semi_major_axis_km": 6917.86208916075,
      "eccentricity": 0.0001563,
      "inclination_deg": 53.2207,
      "raan_deg": 348.0834,
      "arg_perigee_deg": 81.1344,
      "mean_anomaly_deg": 278.9825,
      "mean_motion_rev_day": 15.08845987
    },
    {
      "epoch": "2026-04-08T09:37:50.166048Z",
      "apogee_km": 540.8129774633762,
      "perigee_km": 538.6599968766986,
      "latitude_deg": 2.0659576809622005e-05,
      "longitude_deg": 4.580940223979518,
      "height_km": 540.3873856258205,
      "semi_major_axis_km": 6917.873487170037,
      "eccentricity": 0.00015561,
      "inclination_deg": 53.22,
      "raan_deg": 345.7043,
      "arg_perigee_deg": 76.8518,
      "mean_anomaly_deg": 283.2648,
      "mean_motion_rev_day": 15.08842258
    },
    {
      "epoch": "2026-04-09T09:28:37.325280Z",
      "apogee_km": 540.7459340170208,
      "perigee_km": 538.7318636278378,
      "latitude_deg": 1.0277819913063658e-06,
      "longitude_deg": 1.444087622350116,
      "height_km": 540.4177314750839,
      "semi_major_axis_km": 6917.875898822429,
      "eccentricity": 0.00014557,
      "inclination_deg": 53.2187,
      "raan_deg": 341.2433,
      "arg_perigee_deg": 77.5601,
      "mean_anomaly_deg": 282.5554,
      "mean_motion_rev_day": 15.08841469
    },
    {
      "epoch": "2026-04-10T09:19:24.252096Z",
      "apogee_km": 540.8454646924902,
      "perigee_km": 538.6234443812928,
      "latitude_deg": 4.172671574548444e-05,
      "longitude_deg": -1.6912487634776938,
      "height_km": 540.4098900828743,
      "semi_major_axis_km": 6917.871454536891,
      "eccentricity": 0.0001606,
      "inclination_deg": 53.2191,
      "raan_deg": 336.7828,
      "arg_perigee_deg": 78.571,
      "mean_anomaly_deg": 281.5463,
      "mean_motion_rev_day": 15.08842923
    },
    {
      "epoch": "2026-04-11T20:17:53.530944Z",
      "apogee_km": 540.78774356962,
      "perigee_km": 538.7234444195719,
      "latitude_deg": 7.348845876046109e-06,
      "longitude_deg": -174.29343628133898,
      "height_km": 540.603108632101,
      "semi_major_axis_km": 6917.892593994596,
      "eccentricity": 0.0001492,
      "inclination_deg": 53.2179,
      "raan_deg": 330.239,
      "arg_perigee_deg": 87.3311,
      "mean_anomaly_deg": 272.7852,
      "mean_motion_rev_day": 15.08836007
    },
    {
      "epoch": "2026-04-12T21:44:03.571296Z",
      "apogee_km": 540.7764703910052,
      "perigee_km": 538.7149413446568,
      "latitude_deg": 2.8796859996615703e-05,
      "longitude_deg": 158.3627197388129,
      "height_km": 540.5885029730937,
      "semi_major_axis_km": 6917.882705867831,
      "eccentricity": 0.000149,
      "inclination_deg": 53.218,
      "raan_deg": 325.4816,
      "arg_perigee_deg": 87.0643,
      "mean_anomaly_deg": 273.052,
      "mean_motion_rev_day": 15.08839242
    }
  ]
}